start=new Date('2023-05-29T00:00:00.000Z').valueOf();
sats=[{"CENTER_NAME":"EARTH","COUNTRY_CODE":"US","OBJECT_NAME":"STARLINK-3129","SEMIMAJOR_AXIS":"6917.882","REF_FRAME":"TEME","NORAD_CAT_ID":"49453","OBJECT_TYPE":"PAYLOAD","RA_OF_ASC_NODE":"99.3116","INCLINATION":"53.2165","EPOCH":"2023-05-28T21:20:26.309760","FILE":"3919546","DECAY_DATE":null,"SITE":"AFETR","TIME_SYSTEM":"UTC","ECCENTRICITY":"0.00011670","OBJECT_ID":"2021-104AX","EPHEMERIS_TYPE":"0","MEAN_MOTION":"15.08839632","TLE_LINE2":"2 49453  53.2165  99.3116 0001167  92.8097 267.3028 15.08839632 85420","ARG_OF_PERICENTER":"92.8097","ELEMENT_SET_NO":"999","MEAN_ANOMALY":"267.3028","TLE_LINE1":"1 49453U 21104AX  23148.88919340  .00000673  00000-0  60363-4 0  9991","APOAPSIS":"540.554","LAUNCH_DATE":"2021-11-13","PERIAPSIS":"538.939","MEAN_MOTION_DOT":"0.00000673","REV_AT_EPOCH":"8542","GP_ID":"232705246","MEAN_ELEMENT_THEORY":"SGP4","BSTAR":"0.00006036300000","MEAN_MOTION_DDOT":"0.0000000000000","PERIOD":"95.438","CLASSIFICATION_TYPE":"U","RCS_SIZE":"LARGE"},{"OBJECT_NAME":"STARLINK-3160","SEMIMAJOR_AXIS":"6917.872","CENTER_NAME":"EARTH","COUNTRY_CODE":"US","REF_FRAME":"TEME","OBJECT_TYPE":"PAYLOAD","RA_OF_ASC_NODE":"99.2462","NORAD_CAT_ID":"49454","EPOCH":"2023-05-28T21:13:44.616288","INCLINATION":"53.2161","DECAY_DATE":null,"FILE":"3919546","SITE":"AFETR","TIME_SYSTEM":"UTC","ECCENTRICITY":"0.00012040","MEAN_MOTION":"15.08842889","TLE_LINE2":"2 49454  53.2161  99.2462 0001204  91.3422 268.7708 15.08842889 85426","OBJECT_ID":"2021-104AY","EPHEMERIS_TYPE":"0","ARG_OF_PERICENTER":"91.3422","MEAN_ANOMALY":"268.7708","ELEMENT_SET_NO":"999","TLE_LINE1":"1 49454U 21104AY  23148.88454417 -.00000005  00000-0  17763-4 0  9997","APOAPSIS":"540.569","LAUNCH_DATE":"2021-11-13","PERIAPSIS":"538.904","MEAN_MOTION_DOT":"-0.00000005","GP_ID":"232705997","REV_AT_EPOCH":"8542","MEAN_ELEMENT_THEORY":"SGP4","BSTAR":"0.00001776300000","PERIOD":"95.437","MEAN_MOTION_DDOT":"0.0000000000000","RCS_SIZE":"LARGE","CLASSIFICATION_TYPE":"U"},{"OBJECT_NAME":"STARLINK-3145","SEMIMAJOR_AXIS":"6917.868","CENTER_NAME":"EARTH","COUNTRY_CODE":"US","REF_FRAME":"TEME","OBJECT_TYPE":"PAYLOAD","RA_OF_ASC_NODE":"99.3096","NORAD_CAT_ID":"49455","EPOCH":"2023-05-28T20:52:32.807424","INCLINATION":"53.2173","DECAY_DATE":null,"FILE":"3919546","SITE":"AFETR","TIME_SYSTEM":"UTC","ECCENTRICITY":"0.00011510","TLE_LINE2":"2 49455  53.2173  99.3096 0001151  88.7703 271.3421 15.08844069 85421","MEAN_MOTION":"15.08844069","EPHEMERIS_TYPE":"0","OBJECT_ID":"2021-104AZ","ARG_OF_PERICENTER":"88.7703","MEAN_ANOMALY":"271.3421","ELEMENT_SET_NO":"999","TLE_LINE1":"1 49455U 21104AZ  23148.86982416  .00001034  00000-0  83062-4 0  9998","APOAPSIS":"540.529","PERIAPSIS":"538.937","LAUNCH_DATE":"2021-11-13","MEAN_MOTION_DOT":"0.00001034","REV_AT_EPOCH":"8542","GP_ID":"232706248","MEAN_ELEMENT_THEORY":"SGP4","BSTAR":"0.00008306200000","PERIOD":"95.437","MEAN_MOTION_DDOT":"0.0000000000000","RCS_SIZE":"LARGE","CLASSIFICATION_TYPE":"U"},{"TIME_SYSTEM":"UTC","ECCENTRICITY":"0.00012530","OBJECT_ID":"2021-104BA","EPHEMERIS_TYPE":"0","MEAN_MOTION":"15.08841583","TLE_LINE2":"2 49456  53.2171  99.3063 0001253  89.8135 270.3001 15.08841583 85429","ARG_OF_PERICENTER":"89.8135","ELEMENT_SET_NO":"999","MEAN_ANOMALY":"270.3001","COUNTRY_CODE":"US","CENTER_NAME":"EARTH","SEMIMAJOR_AXIS":"6917.876","OBJECT_NAME":"STARLINK-3124","REF_FRAME":"TEME","NORAD_CAT_ID":"49456","RA_OF_ASC_NODE":"99.3063","OBJECT_TYPE":"PAYLOAD","INCLINATION":"53.2171","EPOCH":"2023-05-28T21:09:50.038560","FILE":"3919546","DECAY_DATE":null,"SITE":"AFETR","REV_AT_EPOCH":"8542","GP_ID":"232706999","MEAN_ELEMENT_THEORY":"SGP4","BSTAR":"0.00003340900000","MEAN_MOTION_DDOT":"0.0000000000000","PERIOD":"95.437","CLASSIFICATION_TYPE":"U","RCS_SIZE":"LARGE","TLE_LINE1":"1 49456U 21104BA  23148.88182915  .00000244  00000-0  33409-4 0  9999","APOAPSIS":"540.607","PERIAPSIS":"538.874","LAUNCH_DATE":"2021-11-13","MEAN_MOTION_DOT":"0.00000244"},{"ELEMENT_SET_NO":"999","MEAN_ANOMALY":"270.2408","ARG_OF_PERICENTER":"89.8728","EPHEMERIS_TYPE":"0","OBJECT_ID":"2021-104BB","MEAN_MOTION":"15.08846443","TLE_LINE2":"2 49457  53.2168 102.6020 0001258  89.8728 270.2408 15.08846443 85318","ECCENTRICITY":"0.00012580","TIME_SYSTEM":"UTC","SITE":"AFETR","DECAY_DATE":null,"FILE":"3919252","INCLINATION":"53.2168","EPOCH":"2023-05-28T03:19:23.063232","NORAD_CAT_ID":"49457","RA_OF_ASC_NODE":"102.6020","OBJECT_TYPE":"PAYLOAD","REF_FRAME":"TEME","COUNTRY_CODE":"US","CENTER_NAME":"EARTH","OBJECT_NAME":"STARLINK-3132","SEMIMAJOR_AXIS":"6917.861","CLASSIFICATION_TYPE":"U","RCS_SIZE":"LARGE","MEAN_MOTION_DDOT":"0.0000000000000","PERIOD":"95.437","BSTAR":"0.00005816200000","MEAN_ELEMENT_THEORY":"SGP4","REV_AT_EPOCH":"8531","GP_ID":"232671460","MEAN_MOTION_DOT":"0.00000638","LAUNCH_DATE":"2021-11-13","PERIAPSIS":"538.855","APOAPSIS":"540.596","TLE_LINE1":"1 49457U 21104BB  23148.13846138  .00000638  00000-0  58162-4 0  9992"},{"MEAN_ANOMALY":"274.4123","ELEMENT_SET_NO":"999","ARG_OF_PERICENTER":"85.7012","ECCENTRICITY":"0.00012500","TLE_LINE2":"2 49458  53.2167 102.5683 0001250  85.7012 274.4123 15.08848354 85318","MEAN_MOTION":"15.08848354","EPHEMERIS_TYPE":"0","OBJECT_ID":"2021-104BC","TIME_SYSTEM":"UTC","FILE":"3919252","DECAY_DATE":null,"SITE":"AFETR","EPOCH":"2023-05-28T03:28:35.914368","INCLINATION":"53.2167","REF_FRAME":"TEME","RA_OF_ASC_NODE":"102.5683","OBJECT_TYPE":"PAYLOAD","NORAD_CAT_ID":"49458","OBJECT_NAME":"STARLINK-3156","SEMIMAJOR_AXIS":"6917.855","CENTER_NAME":"EARTH","COUNTRY_CODE":"US","RCS_SIZE":"LARGE","CLASSIFICATION_TYPE":"U","PERIOD":"95.437","MEAN_MOTION_DDOT":"0.0000000000000","BSTAR":"0.00010696000000","REV_AT_EPOCH":"8531","GP_ID":"232672210","MEAN_ELEMENT_THEORY":"SGP4","MEAN_MOTION_DOT":"0.00001415","PERIAPSIS":"538.855","LAUNCH_DATE":"2021-11-13","TLE_LINE1":"1 49458U 21104BC  23148.14486012  .00001415  00000-0  10696-3 0  9998","APOAPSIS":"540.585"},{"APOAPSIS":"540.620","TLE_LINE1":"1 49459U 21104BD  23148.86246445  .00000986  00000-0  80029-4 0  9992","LAUNCH_DATE":"2021-11-13","PERIAPSIS":"538.860","MEAN_MOTION_DOT":"0.00000986","MEAN_ELEMENT_THEORY":"SGP4","GP_ID":"232706749","REV_AT_EPOCH":"8542","BSTAR":"0.00008002900000","PERIOD":"95.437","MEAN_MOTION_DDOT":"0.0000000000000","RCS_SIZE":"LARGE","CLASSIFICATION_TYPE":"U","SEMIMAJOR_AXIS":"6917.875","OBJECT_NAME":"STARLINK-3141","COUNTRY_CODE":"US","CENTER_NAME":"EARTH","OBJECT_TYPE":"PAYLOAD","RA_OF_ASC_NODE":"99.3411","NORAD_CAT_ID":"49459","REF_FRAME":"TEME","INCLINATION":"53.2181","EPOCH":"2023-05-28T20:41:56.928480","SITE":"AFETR","DECAY_DATE":null,"FILE":"3919546","TIME_SYSTEM":"UTC","TLE_LINE2":"2 49459  53.2181  99.3411 0001272  90.9997 269.1141 15.08841797 85428","MEAN_MOTION":"15.08841797","OBJECT_ID":"2021-104BD","EPHEMERIS_TYPE":"0","ECCENTRICITY":"0.00012720","ARG_OF_PERICENTER":"90.9997","MEAN_ANOMALY":"269.1141","ELEMENT_SET_NO":"999"},{"ECCENTRICITY":"0.00011940","OBJECT_ID":"2021-104BE","EPHEMERIS_TYPE":"0","TLE_LINE2":"2 49460  53.2176 102.3319 0001194  84.5951 275.5177 15.08840532 85312","MEAN_MOTION":"15.08840532","TIME_SYSTEM":"UTC","ELEMENT_SET_NO":"999","MEAN_ANOMALY":"275.5177","ARG_OF_PERICENTER":"84.5951","REF_FRAME":"TEME","NORAD_CAT_ID":"49460","RA_OF_ASC_NODE":"102.3319","OBJECT_TYPE":"PAYLOAD","CENTER_NAME":"EARTH","COUNTRY_CODE":"US","SEMIMAJOR_AXIS":"6917.879","OBJECT_NAME":"STARLINK-3140","DECAY_DATE":null,"FILE":"3919252","SITE":"AFETR","INCLINATION":"53.2176","EPOCH":"2023-05-28T04:42:48.059712","BSTAR":"0.00009762200000","REV_AT_EPOCH":"8531","GP_ID":"232673208","MEAN_ELEMENT_THEORY":"SGP4","CLASSIFICATION_TYPE":"U","RCS_SIZE":"LARGE","MEAN_MOTION_DDOT":"0.0000000000000","PERIOD":"95.438","PERIAPSIS":"538.918","LAUNCH_DATE":"2021-11-13","TLE_LINE1":"1 49460U 21104BE  23148.19638958  .00001266  00000-0  97622-4 0  9993","APOAPSIS":"540.570","MEAN_MOTION_DOT":"0.00001266"},{"ELEMENT_SET_NO":"999","MEAN_ANOMALY":"258.4718","ARG_OF_PERICENTER":"101.6411","ECCENTRICITY":"0.00012170","OBJECT_ID":"2021-115A","EPHEMERIS_TYPE":"0","MEAN_MOTION":"15.08843854","TLE_LINE2":"2 49724  53.2171  29.1485 0001217 101.6411 258.4718 15.08843854 82181","TIME_SYSTEM":"UTC","DECAY_DATE":null,"FILE":"3919546","SITE":"AFETR","INCLINATION":"53.2171","EPOCH":"2023-05-28T21:45:35.836992","REF_FRAME":"TEME","NORAD_CAT_ID":"49724","OBJECT_TYPE":"PAYLOAD","RA_OF_ASC_NODE":"29.1485","COUNTRY_CODE":"US","CENTER_NAME":"EARTH","OBJECT_NAME":"STARLINK-3219","SEMIMAJOR_AXIS":"6917.869","CLASSIFICATION_TYPE":"U","RCS_SIZE":"LARGE","MEAN_MOTION_DDOT":"0.0000000000000","PERIOD":"95.437","BSTAR":"0.00015863000000","GP_ID":"232706256","REV_AT_EPOCH":"8218","MEAN_ELEMENT_THEORY":"SGP4","MEAN_MOTION_DOT":"0.00002238","PERIAPSIS":"538.892","LAUNCH_DATE":"2021-12-02","TLE_LINE1":"1 49724U 21115A   23148.90666478  .00002238  00000-0  15863-3 0  9991","APOAPSIS":"540.576"},{"APOAPSIS":"540.589","TLE_LINE1":"1 49725U 21115B   23148.88363915  .00001202  00000-0  93593-4 0  9996","PERIAPSIS":"538.893","LAUNCH_DATE":"2021-12-02","MEAN_MOTION_DOT":"0.00001202","MEAN_ELEMENT_THEORY":"SGP4","REV_AT_EPOCH":"8218","GP_ID":"232707007","BSTAR":"0.00009359300000","PERIOD":"95.437","MEAN_MOTION_DDOT":"0.0000000000000","RCS_SIZE":"LARGE","CLASSIFICATION_TYPE":"U","SEMIMAJOR_AXIS":"6917.876","OBJECT_NAME":"STARLINK-3218","COUNTRY_CODE":"US","CENTER_NAME":"EARTH","RA_OF_ASC_NODE":"29.3521","OBJECT_TYPE":"PAYLOAD","NORAD_CAT_ID":"49725","REF_FRAME":"TEME","INCLINATION":"53.2185","EPOCH":"2023-05-28T21:12:26.422560","SITE":"AFETR","FILE":"3919546","DECAY_DATE":null,"TIME_SYSTEM":"UTC","TLE_LINE2":"2 49725  53.2185  29.3521 0001226  88.7035 271.4097 15.08841420 82189","MEAN_MOTION":"15.08841420","EPHEMERIS_TYPE":"0","OBJECT_ID":"2021-115B","ECCENTRICITY":"0.00012260","ARG_OF_PERICENTER":"88.7035","MEAN_ANOMALY":"271.4097","ELEMENT_SET_NO":"999"}];
